NODE_17_18
1 00000U 23666A   24061.61997066  .00000000  00000-0 00000000 0 00002
2 00000  90.0000 102.0000 0000011   0.0000 301.0000 20.00000000000002
NODE_17_19
1 00000U 23666A   24061.61997066  .00000000  00000-0 00000000 0 00002
2 00000  90.0000 102.0000 0000011   0.0000 313.0000 20.00000000000005
NODE_17_20
1 00000U 23666A   24061.61997066  .00000000  00000-0 00000000 0 00002
2 00000  90.0000 102.0000 0000011   0.0000 325.0000 20.00000000000008
NODE_17_21
1 00000U 23666A   24061.61997066  .00000000  00000-0 00000000 0 00002
2 00000  90.0000 102.0000 0000011   0.0000 337.0000 20.00000000000001
NODE_17_22
1 00000U 23666A   24061.61997066  .00000000  00000-0 00000000 0 00002
2 00000  90.0000 102.0000 0000011   0.0000 349.0000 20.00000000000004
NODE_17_23
1 00000U 23666A   24061.61997066  .00000000  00000-0 00000000 0 00002
2 00000  90.0000 102.0000 0000011   0.0000 361.0000 20.00000000000008
NODE_17_24
1 00000U 23666A   24061.61997066  .00000000  00000-0 00000000 0 00002
2 00000  90.0000 102.0000 0000011   0.0000 373.0000 20.00000000000001
NODE_17_25
1 00000U 23666A   24061.61997066  .00000000  00000-0 00000000 0 00002
2 00000  90.0000 102.0000 0000011   0.0000 385.0000 20.00000000000004
NODE_17_26
1 00000U 23666A   24061.61997066  .00000000  00000-0 00000000 0 00002
2 00000  90.0000 102.0000 0000011   0.0000 397.0000 20.00000000000007
NODE_17_27
1 00000U 23666A   24061.61997066  .00000000  00000-0 00000000 0 00002
2 00000  90.0000 102.0000 0000011   0.0000 409.0000 20.00000000000001
NODE_17_28
1 00000U 23666A   24061.61997066  .00000000  00000-0 00000000 0 00002
2 00000  90.0000 102.0000 0000011   0.0000 421.0000 20.00000000000005
NODE_17_29
1 00000U 23666A   24061.61997066  .00000000  00000-0 00000000 0 00002
2 00000  90.0000 102.0000 0000011   0.0000 433.0000 20.00000000000008
NODE_18_0
1 00000U 23666A   24061.61997066  .00000000  00000-0 00000000 0 00002
2 00000  90.0000 108.0000 0000011   0.0000  90.0000 20.00000000000003
NODE_18_1
1 00000U 23666A   24061.61997066  .00000000  00000-0 00000000 0 00002
2 00000  90.0000 108.0000 0000011   0.0000 102.0000 20.00000000000007
NODE_18_2
1 00000U 23666A   24061.61997066  .00000000  00000-0 00000000 0 00002
2 00000  90.0000 108.0000 0000011   0.0000 114.0000 20.00000000000000
NODE_18_3
1 00000U 23666A   24061.61997066  .00000000  00000-0 00000000 0 00002
2 00000  90.0000 108.0000 0000011   0.0000 126.0000 20.00000000000003
NODE_18_4
1 00000U 23666A   24061.61997066  .00000000  00000-0 00000000 0 00002
2 00000  90.0000 108.0000 0000011   0.0000 138.0000 20.00000000000006
NODE_18_5
1 00000U 23666A   24061.61997066  .00000000  00000-0 00000000 0 00002
2 00000  90.0000 108.0000 0000011   0.0000 150.0000 20.00000000000000
NODE_18_6
1 00000U 23666A   24061.61997066  .00000000  00000-0 00000000 0 00002
2 00000  90.0000 108.0000 0000011   0.0000 162.0000 20.00000000000003
NODE_18_7
1 00000U 23666A   24061.61997066  .00000000  00000-0 00000000 0 00002
2 00000  90.0000 108.0000 0000011   0.0000 174.0000 20.00000000000006
NODE_18_8
1 00000U 23666A   24061.61997066  .00000000  00000-0 00000000 0 00002
2 00000  90.0000 108.0000 0000011   0.0000 186.0000 20.00000000000009
NODE_18_9
1 00000U 23666A   24061.61997066  .00000000  00000-0 00000000 0 00002
2 00000  90.0000 108.0000 0000011   0.0000 198.0000 20.00000000000002
NODE_18_10
1 00000U 23666A   24061.61997066  .00000000  00000-0 00000000 0 00002
2 00000  90.0000 108.0000 0000011   0.0000 210.0000 20.00000000000007
NODE_18_11
1 00000U 23666A   24061.61997066  .00000000  00000-0 00000000 0 00002
2 00000  90.0000 108.0000 0000011   0.0000 222.0000 20.00000000000000
NODE_18_12
1 00000U 23666A   24061.61997066  .00000000  00000-0 00000000 0 00002
2 00000  90.0000 108.0000 0000011   0.0000 234.0000 20.00000000000003
NODE_18_13
1 00000U 23666A   24061.61997066  .00000000  00000-0 00000000 0 00002
2 00000  90.0000 108.0000 0000011   0.0000 246.0000 20.00000000000006
NODE_18_14
1 00000U 23666A   24061.61997066  .00000000  00000-0 00000000 0 00002
2 00000  90.0000 108.0000 0000011   0.0000 258.0000 20.00000000000009
NODE_18_15
1 00000U 23666A   24061.61997066  .00000000  00000-0 00000000 0 00002
2 00000  90.0000 108.0000 0000011   0.0000 270.0000 20.00000000000003
NODE_18_16
1 00000U 23666A   24061.61997066  .00000000  00000-0 00000000 0 00002
2 00000  90.0000 108.0000 0000011   0.0000 282.0000 20.00000000000006
NODE_18_17
1 00000U 23666A   24061.61997066  .00000000  00000-0 00000000 0 00002
2 00000  90.0000 108.0000 0000011   0.0000 294.0000 20.00000000000009
NODE_18_18
1 00000U 23666A   24061.61997066  .00000000  00000-0 00000000 0 00002
2 00000  90.0000 108.0000 0000011   0.0000 306.0000 20.00000000000003
NODE_18_19
1 00000U 23666A   24061.61997066  .00000000  00000-0 00000000 0 00002
2 00000  90.0000 108.0000 0000011   0.0000 318.0000 20.00000000000006
NODE_18_20
1 00000U 23666A   24061.61997066  .00000000  00000-0 00000000 0 00002
2 00000  90.0000 108.0000 0000011   0.0000 330.0000 20.00000000000000
NODE_18_21
1 00000U 23666A   24061.61997066  .00000000  00000-0 00000000 0 00002
2 00000  90.0000 108.0000 0000011   0.0000 342.0000 20.00000000000003
NODE_18_22
1 00000U 23666A   24061.61997066  .00000000  00000-0 00000000 0 00002
2 00000  90.0000 108.0000 0000011   0.0000 354.0000 20.00000000000006
NODE_18_23
1 00000U 23666A   24061.61997066  .00000000  00000-0 00000000 0 00002
2 00000  90.0000 108.0000 0000011   0.0000 366.0000 20.00000000000009
NODE_18_24
1 00000U 23666A   24061.61997066  .00000000  00000-0 00000000 0 00002
2 00000  90.0000 108.0000 0000011   0.0000 378.0000 20.00000000000002
NODE_18_25
1 00000U 23666A   24061.61997066  .00000000  00000-0 00000000 0 00002
2 00000  90.0000 108.0000 0000011   0.0000 390.0000 20.00000000000006
NODE_18_26
1 00000U 23666A   24061.61997066  .00000000  00000-0 00000000 0 00002
2 00000  90.0000 108.0000 0000011   0.0000 402.0000 20.00000000000000
NODE_18_27
1 00000U 23666A   24061.61997066  .00000000  00000-0 00000000 0 00002
2 00000  90.0000 108.0000 0000011   0.0000 414.0000 20.00000000000003
NODE_18_28
1 00000U 23666A   24061.61997066  .00000000  00000-0 00000000 0 00002
2 00000  90.0000 108.0000 0000011   0.0000 426.0000 20.00000000000006
NODE_18_29
1 00000U 23666A   24061.61997066  .00000000  00000-0 00000000 0 00002
2 00000  90.0000 108.0000 0000011   0.0000 438.0000 20.00000000000009
NODE_19_0
1 00000U 23666A   24061.61997066  .00000000  00000-0 00000000 0 00002
2 00000  90.0000 114.0000 0000011   0.0000  95.0000 20.00000000000005
NODE_19_1
1 00000U 23666A   24061.61997066  .00000000  00000-0 00000000 0 00002
2 00000  90.0000 114.0000 0000011   0.0000 107.0000 20.00000000000009
NODE_19_2
1 00000U 23666A   24061.61997066  .00000000  00000-0 00000000 0 00002
2 00000  90.0000 114.0000 0000011   0.0000 119.0000 20.00000000000002
NODE_19_3
1 00000U 23666A   24061.61997066  .00000000  00000-0 00000000 0 00002
2 00000  90.0000 114.0000 0000011   0.0000 131.0000 20.00000000000006
NODE_19_4
1 00000U 23666A   24061.61997066  .00000000  00000-0 00000000 0 00002
2 00000  90.0000 114.0000 0000011   0.0000 143.0000 20.00000000000009
NODE_19_5
1 00000U 23666A   24061.61997066  .00000000  00000-0 00000000 0 00002
2 00000  90.0000 114.0000 0000011   0.0000 155.0000 20.00000000000002
NODE_19_6
1 00000U 23666A   24061.61997066  .00000000  00000-0 00000000 0 00002
2 00000  90.0000 114.0000 0000011   0.0000 167.0000 20.00000000000005
NODE_19_7
1 00000U 23666A   24061.61997066  .00000000  00000-0 00000000 0 00002
2 00000  90.0000 114.0000 0000011   0.0000 179.0000 20.00000000000008
NODE_19_8
1 00000U 23666A   24061.61997066  .00000000  00000-0 00000000 0 00002
2 00000  90.0000 114.0000 0000011   0.0000 191.0000 20.00000000000002
NODE_19_9
1 00000U 23666A   24061.61997066  .00000000  00000-0 00000000 0 00002
2 00000  90.0000 114.0000 0000011   0.0000 203.0000 20.00000000000006
NODE_19_10
1 00000U 23666A   24061.61997066  .00000000  00000-0 00000000 0 00002
2 00000  90.0000 114.0000 0000011   0.0000 215.0000 20.00000000000009
NODE_19_11
1 00000U 23666A   24061.61997066  .00000000  00000-0 00000000 0 00002
2 00000  90.0000 114.0000 0000011   0.0000 227.0000 20.00000000000002
NODE_19_12
1 00000U 23666A   24061.61997066  .00000000  00000-0 00000000 0 00002
2 00000  90.0000 114.0000 0000011   0.0000 239.0000 20.00000000000005
NODE_19_13
1 00000U 23666A   24061.61997066  .00000000  00000-0 00000000 0 00002
2 00000  90.0000 114.0000 0000011   0.0000 251.0000 20.00000000000009
NODE_19_14
1 00000U 23666A   24061.61997066  .00000000  00000-0 00000000 0 00002
2 00000  90.0000 114.0000 0000011   0.0000 263.0000 20.00000000000002
NODE_19_15
1 00000U 23666A   24061.61997066  .00000000  00000-0 00000000 0 00002
2 00000  90.0000 114.0000 0000011   0.0000 275.0000 20.00000000000005
NODE_19_16
1 00000U 23666A   24061.61997066  .00000000  00000-0 00000000 0 00002
2 00000  90.0000 114.0000 0000011   0.0000 287.0000 20.00000000000008
NODE_19_17
1 00000U 23666A   24061.61997066  .00000000  00000-0 00000000 0 00002
2 00000  90.0000 114.0000 0000011   0.0000 299.0000 20.00000000000001
NODE_19_18
1 00000U 23666A   24061.61997066  .00000000  00000-0 00000000 0 00002
2 00000  90.0000 114.0000 0000011   0.0000 311.0000 20.00000000000006
NODE_19_19
1 00000U 23666A   24061.61997066  .00000000  00000-0 00000000 0 00002
2 00000  90.0000 114.0000 0000011   0.0000 323.0000 20.00000000000009
NODE_19_20
1 00000U 23666A   24061.61997066  .00000000  00000-0 00000000 0 00002
2 00000  90.0000 114.0000 0000011   0.0000 335.0000 20.00000000000002
NODE_19_21
1 00000U 23666A   24061.61997066  .00000000  00000-0 00000000 0 00002
2 00000  90.0000 114.0000 0000011   0.0000 347.0000 20.00000000000005
NODE_19_22
1 00000U 23666A   24061.61997066  .00000000  00000-0 00000000 0 00002
2 00000  90.0000 114.0000 0000011   0.0000 359.0000 20.00000000000008
NODE_19_23
1 00000U 23666A   24061.61997066  .00000000  00000-0 00000000 0 00002
2 00000  90.0000 114.0000 0000011   0.0000 371.0000 20.00000000000002
